{
"type": "FeatureCollection",
"name": "routes",
"crs": { "type": "name", "properties": { "name": "urn:ogc:def:crs:OGC:1.3:CRS84" } },
"features": [
{ "type": "Feature", "properties": { "shape_id": "SH1", "route_id": "R1", "route_short_name": "1", "route_long_name": "Route One", "route_color": "FF0000" }, "geometry": { "type": "LineString", "coordinates": [ [ -80.2, 26.0 ], [ -80.19, 26.01 ], [ -80.18, 26.02 ] ] } },
{ "type": "Feature", "properties": { "shape_id": "SH2", "route_id": "R2", "route_short_name": "2", "route_long_name": "Route Two", "route_color": "00FF00" }, "geometry": { "type": "LineString", "coordinates": [ [ -80.205, 26.005 ], [ -80.19, 26.01 ] ] } }
]
}
