{
"type": "FeatureCollection",
"name": "stops",
"crs": { "type": "name", "properties": { "name": "urn:ogc:def:crs:OGC:1.3:CRS84" } },
"features": [
{ "type": "Feature", "properties": { "stop_id": "S1", "stop_name": "Stop One", "stop_code": "S1" }, "geometry": { "type": "Point", "coordinates": [ -80.2, 26.0 ] } },
{ "type": "Feature", "properties": { "stop_id": "S2", "stop_name": "Stop Two", "stop_code": "S2" }, "geometry": { "type": "Point", "coordinates": [ -80.19, 26.01 ] } },
{ "type": "Feature", "properties": { "stop_id": "S3", "stop_name": "Stop Three", "stop_code": "S3" }, "geometry": { "type": "Point", "coordinates": [ -80.18, 26.02 ] } },
{ "type": "Feature", "properties": { "stop_id": "S4", "stop_name": "Stop Four", "stop_code": "S4" }, "geometry": { "type": "Point", "coordinates": [ -80.205, 26.005 ] } }
]
}
